{"type": "FeatureCollection", "features": [ {"type": "Feature", "properties": {"norad_id": 34014, "name": "COSMOS 2251 DEB", "group": "cosmos-2251-debris", "lat": 23.075986277677796, "lon": 96.37556827126097, "alt_km": 651.4076554410358, "timestamp": "2025-12-11T08:58:27.518741+00:00", "meta": {"OBJECT_NAME": "COSMOS 2251 DEB", "OBJECT_ID": "1993-036GZ", "EPOCH": "2025-12-11T05:35:33.715104", "MEAN_MOTION": 14.73106455, "ECCENTRICITY": 0.0036945, "INCLINATION": 74.0172, "RA_OF_ASC_NODE": 283.6641, "ARG_OF_PERICENTER": 63.7147, "MEAN_ANOMALY": 64.7857, "EPHEMERIS_TYPE": 0, "CLASSIFICATION_TYPE": "U", "NORAD_CAT_ID": 34014, "ELEMENT_SET_NO": 999, "REV_AT_EPOCH": 89281, "BSTAR": 0.0016019, "MEAN_MOTION_DOT": 0.00010411, "MEAN_MOTION_DDOT": 0}, "tle": {"line1": "1 34014U 93036GZ  25345.23302911  .00010411  00000+0  16019-2 0  9998", "line2": "2 34014  74.0172 283.6641 0036945  63.7147  64.7857 14.73106455892811"}}, "geometry": {"type": "Point", "coordinates": [96.37556827126097, 23.075986277677796]}}, {"type": "Feature", "properties": {"norad_id": 34015, "name": "COSMOS 2251 DEB", "group": "cosmos-2251-debris", "lat": -23.847536579582414, "lon": 154.75783969501578, "alt_km": 694.0454370650314, "timestamp": "2025-12-11T08:58:27.518751+00:00", "meta": {"OBJECT_NAME": "COSMOS 2251 DEB", "OBJECT_ID": "1993-036HA", "EPOCH": "2025-12-11T04:42:28.153152", "MEAN_MOTION": 14.60213454, "ECCENTRICITY": 0.0021047, "INCLINATION": 74.0236, "RA_OF_ASC_NODE": 162.3728, "ARG_OF_PERICENTER": 259.4381, "MEAN_ANOMALY": 221.4523, "EPHEMERIS_TYPE": 0, "CLASSIFICATION_TYPE": "U", "NORAD_CAT_ID": 34015, "ELEMENT_SET_NO": 999, "REV_AT_EPOCH": 88508, "BSTAR": 0.0021903, "MEAN_MOTION_DOT": 0.0001058, "MEAN_MOTION_DDOT": 0}, "tle": {"line1": "1 34015U 93036HA  25345.19615918  .00010580  00000+0  21903-2 0  9993", "line2": "2 34015  74.0236 162.3728 0021047 259.4381 221.4523 14.60213454885080"}}, "geometry": {"type": "Point", "coordinates": [154.75783969501578, -23.847536579582414]}}, {"type": "Feature", "properties": {"norad_id": 34018, "name": "COSMOS 2251 DEB", "group": "cosmos-2251-debris", "lat": 31.445108405092107, "lon": -95.7766724080831, "alt_km": 771.7652388921506, "timestamp": "2025-12-11T08:58:27.518762+00:00", "meta": {"OBJECT_NAME": "COSMOS 2251 DEB", "OBJECT_ID": "1993-036HD", "EPOCH": "2025-12-10T09:59:13.385760", "MEAN_MOTION": 13.81067032, "ECCENTRICITY": 0.02638984, "INCLINATION": 73.8775, "RA_OF_ASC_NODE": 96.0331, "ARG_OF_PERICENTER": 132.3579, "MEAN_ANOMALY": 293.5719, "EPHEMERIS_TYPE": 0, "CLASSIFICATION_TYPE": "U", "NORAD_CAT_ID": 34018, "ELEMENT_SET_NO": 999, "REV_AT_EPOCH": 84625, "BSTAR": 0.00084036111, "MEAN_MOTION_DOT": 1.135e-05, "MEAN_MOTION_DDOT": 0}, "tle": {"line1": "1 34018U 93036HD  25344.41612715  .00001135  00000+0  84036-3 0  9995", "line2": "2 34018  73.8775  96.0331 0263898 132.3579 293.5719 13.81067032846255"}}, "geometry": {"type": "Point", "coordinates": [-95.7766724080831, 31.445108405092107]}}, {"type": "Feature", "properties": {"norad_id": 34019, "name": "COSMOS 2251 DEB", "group": "cosmos-2251-debris", "lat": 11.51653337990659, "lon": 56.613096011413084, "alt_km": 812.5431439210261, "timestamp": "2025-12-11T08:58:27.518772+00:00", "meta": {"OBJECT_NAME": "COSMOS 2251 DEB", "OBJECT_ID": "1993-036HE", "EPOCH": "2025-12-11T05:49:55.803072", "MEAN_MOTION": 14.33925838, "ECCENTRICITY": 0.0062713, "INCLINATION": 73.9545, "RA_OF_ASC_NODE": 53.4921, "ARG_OF_PERICENTER": 234.9566, "MEAN_ANOMALY": 181.0856, "EPHEMERIS_TYPE": 0, "CLASSIFICATION_TYPE": "U", "NORAD_CAT_ID": 34019, "ELEMENT_SET_NO": 999, "REV_AT_EPOCH": 87499, "BSTAR": 0.0013912, "MEAN_MOTION_DOT": 3.94e-05, "MEAN_MOTION_DDOT": 0}, "tle": {"line1": "1 34019U 93036HE  25345.24300698  .00003940  00000+0  13912-2 0  9992", "line2": "2 34019  73.9545  53.4921 0062713 234.9566 181.0856 14.33925838874992"}}, "geometry": {"type": "Point", "coordinates": [56.613096011413084, 11.51653337990659]}}, {"type": "Feature", "properties": {"norad_id": 34021, "name": "COSMOS 2251 DEB", "group": "cosmos-2251-debris", "lat": 30.897879922806055, "lon": 142.25687167880187, "alt_km": 730.2750293620529, "timestamp": "2025-12-11T08:58:27.518783+00:00", "meta": {"OBJECT_NAME": "COSMOS 2251 DEB", "OBJECT_ID": "1993-036HG", "EPOCH": "2025-12-10T16:20:06.831168", "MEAN_MOTION": 14.49935622, "ECCENTRICITY": 0.00208864, "INCLINATION": 74.0358, "RA_OF_ASC_NODE": 133.6943, "ARG_OF_PERICENTER": 277.9392, "MEAN_ANOMALY": 96.853, "EPHEMERIS_TYPE": 0, "CLASSIFICATION_TYPE": "U", "NORAD_CAT_ID": 34021, "ELEMENT_SET_NO": 999, "REV_AT_EPOCH": 88600, "BSTAR": 0.00080466195, "MEAN_MOTION_DOT": 3.094e-05, "MEAN_MOTION_DDOT": 0}, "tle": {"line1": "1 34021U 93036HG  25344.68063462  .00003094  00000+0  80466-3 0  9996", "line2": "2 34021  74.0358 133.6943 0020886 277.9392  96.8530 14.49935622886009"}}, "geometry": {"type": "Point", "coordinates": [142.25687167880187, 30.897879922806055]}}, {"type": "Feature", "properties": {"norad_id": 34022, "name": "COSMOS 2251 DEB", "group": "cosmos-2251-debris", "lat": -72.26349968136797, "lon": 156.67930213429253, "alt_km": 765.0249244324596, "timestamp": "2025-12-11T08:58:27.518793+00:00", "meta": {"OBJECT_NAME": "COSMOS 2251 DEB", "OBJECT_ID": "1993-036HH", "EPOCH": "2025-12-10T14:13:40.269216", "MEAN_MOTION": 14.38958379, "ECCENTRICITY": 0.0022647, "INCLINATION": 74.0542, "RA_OF_ASC_NODE": 274.7506, "ARG_OF_PERICENTER": 340.0797, "MEAN_ANOMALY": 197.6313, "EPHEMERIS_TYPE": 0, "CLASSIFICATION_TYPE": "U", "NORAD_CAT_ID": 34022, "ELEMENT_SET_NO": 999, "REV_AT_EPOCH": 88164, "BSTAR": 0.00040867, "MEAN_MOTION_DOT": 1.238e-05, "MEAN_MOTION_DDOT": 0}, "tle": {"line1": "1 34022U 93036HH  25344.59282719  .00001238  00000+0  40867-3 0  9994", "line2": "2 34022  74.0542 274.7506 0022647 340.0797 197.6313 14.38958379881641"}}, "geometry": {"type": "Point", "coordinates": [156.67930213429253, -72.26349968136797]}}, {"type": "Feature", "properties": {"norad_id": 34023, "name": "COSMOS 2251 DEB", "group": "cosmos-2251-debris", "lat": 5.729304298907621, "lon": 72.62376179118306, "alt_km": 771.6207721045994, "timestamp": "2025-12-11T08:58:27.518803+00:00", "meta": {"OBJECT_NAME": "COSMOS 2251 DEB", "OBJECT_ID": "1993-036HJ", "EPOCH": "2025-12-11T05:25:36.741216", "MEAN_MOTION": 14.40555601, "ECCENTRICITY": 0.0018425, "INCLINATION": 74.0252, "RA_OF_ASC_NODE": 254.5441, "ARG_OF_PERICENTER": 350.5292, "MEAN_ANOMALY": 137.1772, "EPHEMERIS_TYPE": 0, "CLASSIFICATION_TYPE": "U", "NORAD_CAT_ID": 34023, "ELEMENT_SET_NO": 999, "REV_AT_EPOCH": 88192, "BSTAR": 0.00051397, "MEAN_MOTION_DOT": 1.614e-05, "MEAN_MOTION_DDOT": 0}, "tle": {"line1": "1 34023U 93036HJ  25345.22611969  .00001614  00000+0  51397-3 0  9997", "line2": "2 34023  74.0252 254.5441 0018425 350.5292 137.1772 14.40555601881922"}}, "geometry": {"type": "Point", "coordinates": [72.62376179118306, 5.729304298907621]}}, {"type": "Feature", "properties": {"norad_id": 34024, "name": "COSMOS 2251 DEB", "group": "cosmos-2251-debris", "lat": -27.604015092608194, "lon": 147.09897984538327, "alt_km": 793.3336024822374, "timestamp": "2025-12-11T08:58:27.518814+00:00", "meta": {"OBJECT_NAME": "COSMOS 2251 DEB", "OBJECT_ID": "1993-036HK", "EPOCH": "2025-12-11T04:43:58.308960", "MEAN_MOTION": 14.35393418, "ECCENTRICITY": 0.0020958, "INCLINATION": 74.0464, "RA_OF_ASC_NODE": 318.8207, "ARG_OF_PERICENTER": 9.9095, "MEAN_ANOMALY": 6.0215, "EPHEMERIS_TYPE": 0, "CLASSIFICATION_TYPE": "U", "NORAD_CAT_ID": 34024, "ELEMENT_SET_NO": 999, "REV_AT_EPOCH": 88002, "BSTAR": 0.00030724, "MEAN_MOTION_DOT": 8.58e-06, "MEAN_MOTION_DDOT": 0}, "tle": {"line1": "1 34024U 93036HK  25345.19720265  .00000858  00000+0  30724-3 0  9994", "line2": "2 34024  74.0464 318.8207 0020958   9.9095   6.0215 14.35393418880028"}}, "geometry": {"type": "Point", "coordinates": [147.09897984538327, -27.604015092608194]}}, {"type": "Feature", "properties": {"norad_id": 34026, "name": "COSMOS 2251 DEB", "group": "cosmos-2251-debris", "lat": 69.04135704844478, "lon": 29.072573943690777, "alt_km": 1181.9402188945924, "timestamp": "2025-12-11T08:58:27.518824+00:00", "meta": {"OBJECT_NAME": "COSMOS 2251 DEB", "OBJECT_ID": "1993-036HM", "EPOCH": "2025-12-10T23:56:25.694304", "MEAN_MOTION": 13.65304415, "ECCENTRICITY": 0.0350735, "INCLINATION": 73.7669, "RA_OF_ASC_NODE": 340.1828, "ARG_OF_PERICENTER": 210.4558, "MEAN_ANOMALY": 179.7147, "EPHEMERIS_TYPE": 0, "CLASSIFICATION_TYPE": "U", "NORAD_CAT_ID": 34026, "ELEMENT_SET_NO": 999, "REV_AT_EPOCH": 83508, "BSTAR": 0.0010695, "MEAN_MOTION_DOT": 1.3e-05, "MEAN_MOTION_DDOT": 0}, "tle": {"line1": "1 34026U 93036HM  25344.99751961  .00001300  00000+0  10695-2 0  9997", "line2": "2 34026  73.7669 340.1828 0350735 210.4558 179.7147 13.65304415835081"}}, "geometry": {"type": "Point", "coordinates": [29.072573943690777, 69.04135704844478]}}, {"type": "Feature", "properties": {"norad_id": 34028, "name": "COSMOS 2251 DEB", "group": "cosmos-2251-debris", "lat": -43.393854319572036, "lon": -26.519210685182085, "alt_km": 1596.3482047426796, "timestamp": "2025-12-11T08:58:27.518835+00:00", "meta": {"OBJECT_NAME": "COSMOS 2251 DEB", "OBJECT_ID": "1993-036HP", "EPOCH": "2025-12-11T02:14:57.629184", "MEAN_MOTION": 13.2062086, "ECCENTRICITY": 0.0543752, "INCLINATION": 73.8832, "RA_OF_ASC_NODE": 349.7739, "ARG_OF_PERICENTER": 127.9004, "MEAN_ANOMALY": 295.6216, "EPHEMERIS_TYPE": 0, "CLASSIFICATION_TYPE": "U", "NORAD_CAT_ID": 34028, "ELEMENT_SET_NO": 999, "REV_AT_EPOCH": 80986, "BSTAR": 0.00047996, "MEAN_MOTION_DOT": 4.07e-06, "MEAN_MOTION_DDOT": 0}, "tle": {"line1": "1 34028U 93036HP  25345.09372256  .00000407  00000+0  47996-3 0  9999", "line2": "2 34028  73.8832 349.7739 0543752 127.9004 295.6216 13.20620860809861"}}, "geometry": {"type": "Point", "coordinates": [-26.519210685182085, -43.393854319572036]}}]}